[{"OBJECT_NAME":"TIANMU-1 10","OBJECT_ID":"2023-101D","EPOCH":"2026-03-09T23:06:46.939392","MEAN_MOTION":15.2921896,"ECCENTRICITY":0.00069292,"INCLINATION":97.2749,"RA_OF_ASC_NODE":122.1027,"ARG_OF_PERICENTER":133.6162,"MEAN_ANOMALY":226.5654,"EPHEMERIS_TYPE":0,"CLASSIFICATION_TYPE":"U","NORAD_CAT_ID":57402,"ELEMENT_SET_NO":999,"REV_AT_EPOCH":14647,"BSTAR":0.00032238884,"MEAN_MOTION_DOT":9.075e-5,"MEAN_MOTION_DDOT":0},{"OBJECT_NAME":"STARLINK-32843","OBJECT_ID":"2025-018J","EPOCH":"2026-03-09T22:19:18.526656","MEAN_MOTION":15.30173144,"ECCENTRICITY":8.818e-5,"INCLINATION":53.161,"RA_OF_ASC_NODE":308.5895,"ARG_OF_PERICENTER":124.1197,"MEAN_ANOMALY":235.9888,"EPHEMERIS_TYPE":0,"CLASSIFICATION_TYPE":"U","NORAD_CAT_ID":62814,"ELEMENT_SET_NO":999,"REV_AT_EPOCH":6320,"BSTAR":0.0013315326,"MEAN_MOTION_DOT":0.00039253,"MEAN_MOTION_DDOT":0}]
